BADR-4                  
1 29526U 06051A   16011.99711800  .00000145  00000-0  00000+0 0  9999
2 29526   0.0632 317.4953 0005878   2.0935 176.2815  1.00272939 33690
FENGYUN 2D              
1 29640U 06053A   16011.87374861 -.00000360  00000-0  10000-3 0  9992
2 29640   3.4820  67.1091 0001297  22.4254  99.2069  1.00281278 33361
WILDBLUE-1              
1 29643U 06054A   16012.21736953 -.00000049  00000-0  00000+0 0  9998
2 29643   0.0149  69.5427 0001651 229.1589 139.5244  1.00269433 33352
AMC-18                  
1 29644U 06054B   16011.55758777 -.00000088  00000-0  00000+0 0  9996
2 29644   0.0265 323.3946 0002397 324.2661 278.6144  1.00267669 33358
MEASAT-3                
1 29648U 06056A   16012.06877400 -.00000242  00000-0  00000+0 0  9996
2 29648   0.0421 207.6292 0000530  42.0849 337.5547  1.00276181 33366
KIKU-8 (ETS-VIII)       
1 29656U 06059A   16011.46171534 -.00000241  00000-0  00000+0 0  9995
2 29656   4.6152  62.4222 0005506 245.6977 114.1871  1.00270502 33244
INSAT-4B                
1 30793U 07007A   16011.79626241 -.00000257  00000-0  00000+0 0  9996
2 30793   0.1126  89.3711 0008107 190.7765 210.7476  1.00269829 32384
SKYNET 5A               
1 30794U 07007B   16011.86183880 -.00000270  00000-0  00000+0 0  9997
2 30794   0.0676 352.3999 0003698 301.5586 222.2489  1.00272279 32451
ANIK F3                 
1 31102U 07009A   16012.21762646 -.00000001  00000-0  00000+0 0  9998
2 31102   0.0203  47.2038 0001620 253.0199 130.5700  1.00269330 32146
ASTRA 1L                
1 31306U 07016A   16011.13278950  .00000122  00000-0  00000+0 0  9995
2 31306   0.0370 294.8441 0004749 326.5720 275.6334  1.00272882 31831
GALAXY 17 (G-17)        
1 31307U 07016B   16012.32852216 -.00000175  00000-0  00000+0 0  9990
2 31307   0.0286 347.2092 0002590 289.3658 221.9595  1.00270328 31882
ZHONGXING-6B            
1 31800U 07031A   16011.70062164 -.00000361  00000-0  00000+0 0  9998
2 31800   0.0245  45.1777 0003372 239.2686 193.9645  1.00270739 31276
DIRECTV 10              
1 31862U 07032A   16010.98028774 -.00000101  00000-0  00000+0 0  9997
2 31862   0.0126 280.9557 0000231  15.7687  63.2732  1.00273004 31203
SPACEWAY 3              
1 32018U 07036A   16012.14218189 -.00000152  00000-0  00000+0 0  9992
2 32018   0.0101 145.7399 0000047  33.7155 247.8495  1.00271639 30934
BSAT-3A                 
1 32019U 07036B   16011.38826605 -.00000349  00000-0  00000+0 0  9994
2 32019   0.0517 223.2954 0004210  37.3223  99.3273  1.00272240 30862
INSAT-4CR               
1 32050U 07037A   16012.13477508 -.00000077  00000-0  00000+0 0  9996
2 32050   0.0940 269.3506 0008186   4.9685 319.2537  1.00271429 30651
OPTUS D2                
1 32252U 07044A   16011.56857170 -.00000182  00000-0  00000+0 0  9998
2 32252   0.0182   9.8668 0003097 280.8378 176.4884  1.00270732 30248
INTELSAT 11 (IS-11)     
1 32253U 07044B   16012.17745733 -.00000269  00000-0  00000+0 0  9994
2 32253   0.0455 233.0584 0002772  58.6747 200.2561  1.00271544 30330
STAR ONE C1             
1 32293U 07056A   16010.87539709 -.00000274  00000-0  00000+0 0  9996
2 32293   0.0544  87.3963 0002633 212.7224  59.8487  1.00271677 29906
SKYNET 5B               
1 32294U 07056B   16012.14287895  .00000142  00000-0  00000+0 0  9998
2 32294   0.0647  13.4415 0004098 283.8854 250.2220  1.00271929 30014
ASTRA 4A (SIRIUS 4)     
1 32299U 07057A   16012.03026279  .00000032  00000-0  00000+0 0  9997
2 32299   0.0268 320.3038 0002615 322.8847 203.4633  1.00271277 29762
HORIZONS-2              
1 32388U 07063B   16011.88681891 -.00000181  00000-0  00000+0 0  9998
2 32388   0.0186 327.3315 0002617 333.3171 214.2765  1.00268534 29683
THURAYA-3               
1 32404U 08001A   16011.80523433 -.00000297  00000-0  00000+0 0  9997
2 32404   4.2878 348.8489 0004834 293.6175 216.7978  1.00270353 29338
EXPRESS-AM33            
1 32478U 08003A   16012.28280302 -.00000280  00000-0  00000+0 0  9990
2 32478   0.0429 213.4748 0000778 165.5618 290.4468  1.00268907 29427
THOR 5                  
1 32487U 08006A   16012.12915199 -.00000009  00000-0  00000+0 0  9994
2 32487   0.0367 214.3170 0002645  86.4841 215.9927  1.00271186 28986
KIZUNA (WINDS)          
1 32500U 08007A   16011.85391595 -.00000258  00000-0  00000+0 0  9994
2 32500   0.0917 266.7575 0002554  37.3721 257.0649  1.00272502 28839
AMC-14                  
1 32708U 08011A   16010.99739977  .00000133  00000-0  00000+0 0  9994
2 32708  18.1396  71.0474 0044206 354.4067  73.0279  1.00271375 29890
DIRECTV 11              
1 32729U 08013A   16010.28007406 -.00000122  00000-0  00000+0 0  9995
2 32729   0.0164 212.1790 0000282   8.4292 250.2802  1.00272371 28726
ICO G1                  
1 32763U 08016A   16012.32847644 -.00000167  00000-0  00000+0 0  9998
2 32763   4.0565 349.1898 0003523 308.0585 199.4120  1.00271866 28273
VINASAT-1               
1 32767U 08018A   16011.32747004 -.00000328  00000-0  00000+0 0  9991
2 32767   0.0265  21.1061 0001795 280.6435  58.2329  1.00268996 28405
STAR ONE C2             
1 32768U 08018B   16011.88676775 -.00000264  00000-0  00000+0 0  9998
2 32768   0.0198 127.8896 0001562 143.6792  88.4133  1.00269878 28359
TIANLIAN 1-01           
1 32779U 08019A   16011.76157640 -.00000137  00000-0  10000-3 0  9997
2 32779   1.7480  78.5376 0038013 218.5460 167.8245  1.00270771 28274
AMOS-3                  
1 32794U 08022A   16012.16254348 -.00000035  00000-0  00000+0 0  9998
2 32794   0.0488 239.7416 0001306  61.1185 224.7216  1.00271027 28252
GALAXY 18 (G-18)        
1 32951U 08024A   16012.03335600  .00000025  00000-0  00000+0 0  9990
2 32951   0.0163  16.6502 0002688 274.8653  68.4559  1.00269604 27892
CHINASAT 9 (ZX 9)       
1 33051U 08028A   16011.89024443 -.00000247  00000-0  00000+0 0  9996
2 33051   0.0040  11.4901 0003651 280.4998 231.5267  1.00270452 27814
SKYNET 5C               
1 33055U 08030A   16011.27683000 -.00000138  00000-0  00000+0 0  9994
2 33055   0.0607   3.7949 0003648 271.6413 276.6075  1.00271794 27696
TURKSAT 3A              
1 33056U 08030B   16011.84614459  .00000147  00000-0  00000+0 0  9999
2 33056   0.0474 161.2763 0003206 116.7059 179.4156  1.00269553 27889
INTELSAT 25 (IS-25)     
1 33153U 08034A   16012.10902598 -.00000224  00000-0  00000+0 0  9992
2 33153   0.0188 309.7784 0002222 331.3640 197.6171  1.00269701 27445
BADR-6                  
1 33154U 08034B   16011.13238403  .00000146  00000-0  00000+0 0  9994
2 33154   0.0573  32.5024 0002925 299.8658 211.3526  1.00270212 27558
ECHOSTAR 11             
1 33207U 08035A   16011.00006010 -.00000054  00000-0  00000+0 0  9996
2 33207   0.0189  51.0608 0003412 257.1311  51.7706  1.00271272 27451
SUPERBIRD-C2            
1 33274U 08038A   16012.51071140 -.00000252  00000-0  00000+0 0  9996
2 33274   0.0227 304.8090 0001545 332.4282 162.0172  1.00271360 27193
AMC-21                  
1 33275U 08038B   16012.50708725  .00000035  00000-0  00000+0 0  9990
2 33275   0.0262 326.1689 0002311 312.4137 250.4967  1.00271899 27273
INMARSAT 4-F3           
1 33278U 08039A   16011.40504316 -.00000134  00000-0  00000+0 0  9993
2 33278   3.0201 356.2853 0003135 304.6335 217.2502  1.00271442 27064
NIMIQ 4                 
1 33373U 08044A   16012.29695743 -.00000220  00000-0  00000+0 0  9994
2 33373   0.0362  74.2181 0002574 235.4224 186.5245  1.00266262 26649
GALAXY 19 (G-19)        
1 33376U 08045A   16011.61267881 -.00000138  00000-0  00000+0 0  9999
2 33376   0.0198  64.2998 0003164 234.3176 295.4829  1.00270965 26636
VENESAT-1               
1 33414U 08055A   16012.47672773 -.00000239  00000-0  00000+0 0  9990
2 33414   0.0142 222.8271 0001457  56.9005 285.2562  1.00273573 26365
ASTRA 1M                
1 33436U 08057A   16012.21271123  .00000119  00000-0  00000+0 0  9998
2 33436   0.0099  44.2173 0001592 173.0777 349.5897  1.00270493 26288
CIEL-2                  
1 33453U 08063A   16012.47776034  .00000057  00000-0  00000+0 0  9994
2 33453   0.0289 311.8734 0002670 336.6937 225.9705  1.00271820 25972
EUTELSAT HOT BIRD 13C   
1 33459U 08065A   16011.65667981  .00000087  00000-0  00000+0 0  9994
2 33459   0.0624  60.6271 0003123 268.1584  31.1881  1.00270451 26058
EUTELSAT 48D            
1 33460U 08065B   16011.87108399  .00000125  00000-0  00000+0 0  9996
2 33460   0.0538 334.1170 0002511 299.5662 198.7931  1.00271257 25911
FENGYUN 2E              
1 33463U 08066A   16012.07273096 -.00000195  00000-0  00000+0 0  9998
2 33463   1.2266  58.3713 0003333 221.2073 303.7049  1.00269037 25892
EXPRESS-AM44            
1 33595U 09007A   16012.20084223 -.00000089  00000-0  00000+0 0  9999
2 33595   0.0306 212.7466 0000643 188.7848 130.9005  1.00272177 25362
NSS-9                   
1 33749U 09008A   16011.49632311  .00000073  00000-0  00000+0 0  9990
2 33749   0.0148  10.1848 0001889 272.8066 189.1915  1.00272220 25366
EUTELSAT HOT BIRD 13D   
1 33750U 09008B   16011.99815593  .00000087  00000-0  00000+0 0  9997
2 33750   0.0234  22.8050 0004653 257.5578 202.8824  1.00271321 25407
TELSTAR 11N             
1 34111U 09009A   16012.11102082 -.00000251  00000-0  00000+0 0  9991
2 34111   0.0251  57.1626 0002570 221.3260 194.9823  1.00269776 25222
EUTELSAT 10A            
1 34710U 09016A   16011.27087928  .00000070  00000-0  00000+0 0  9999
2 34710   0.0631  14.4113 0006066 283.1309 280.1706  1.00273320 24766
SES-7 (PROTOSTAR 2)     
1 34941U 09027A   16011.82150144 -.00000344  00000-0  00000+0 0  9994
2 34941   0.0237  52.8783 0002711 221.6193 240.2451  1.00271755 24421
MEASAT-3A               
1 35362U 09032A   16011.43917544 -.00000240  00000-0  00000+0 0  9995
2 35362   0.0194 237.3358 0002468  15.5795 107.0577  1.00271672 24041
GOES 14                 
1 35491U 09033A   16010.98519348 -.00000089  00000-0  00000+0 0  9999
2 35491   0.0866 260.7669 0005348 332.4731 126.7043  1.00271268 23952
SIRIUS FM-5             
1 35493U 09034A   16011.48018411 -.00000144  00000-0  00000+0 0  9995
2 35493   0.0322 288.4337 0000700 182.8474  76.0095  1.00271631 23776
